     2.100          NAVIGATION                              RINEX VERSION / TYPE
fic2rin                                 12/23/2010 00:38:06 PGM / RUN BY / DATE
                                                            END OF HEADER
13 10 12 22 10  0  0.0  .288329087198D-03 -.113686837722D-11  .000000000000D+00
     .220000000000D+02  .162125000000D+03  .363586573412D-08  .131489118759D+01
     .832788646221D-05  .432940048631D-02  .621937215328D-05  .515367305374D+04
     .295200000000D+06  .465661287308D-07 -.222282206146D+01 -.113621354103D-06
     .991254178950D+00  .274187500000D+03  .179725570022D+01 -.782604027170D-08
     .357514891930D-09  .100000000000D+01  .161500000000D+04  .000000000000D+00
     .240000000000D+01  .000000000000D+00 -.107102096081D-07  .220000000000D+02
     .288006000000D+06  .400000000000D+01
14 10 12 22 10  0  0.0  .117640011013D-03  .306954461848D-11  .000000000000D+00
     .107000000000D+03  .135812500000D+03  .378337187834D-08  .126867564077D+01
     .708363950253D-05  .571477448102D-02  .644661486149D-05  .515361713219D+04
     .295200000000D+06 -.135973095894D-06 -.224599180335D+01  .186264514923D-07
     .984402018421D+00  .264937500000D+03 -.207948392025D+01 -.790318634229D-08
     .253939149013D-09  .100000000000D+01  .161500000000D+04  .000000000000D+00
     .240000000000D+01  .000000000000D+00 -.884756445885D-08  .107000000000D+03
     .288006000000D+06  .400000000000D+01
15 10 12 22 10  0  0.0 -.169313512743D-03  .409272615798D-11  .000000000000D+00
     .720000000000D+02  .144343750000D+03  .449697303126D-08  .974288573155D+00
     .757724046707D-05  .319589290302D-02  .692158937454D-05  .515387688065D+04
     .295200000000D+06  .521540641785D-07 -.231674025669D+01  .298023223877D-07
     .951806622201D+00  .238250000000D+03 -.162372583813D+00 -.812819571483D-08
     .215723271454D-09  .100000000000D+01  .161500000000D+04  .000000000000D+00
     .240000000000D+01  .000000000000D+00 -.977888703346D-08  .720000000000D+02
     .288006000000D+06  .400000000000D+01
16 10 12 22 10  0  0.0 -.136442482471D-03 -.318323145621D-11  .000000000000D+00
     .105000000000D+03 -.137687500000D+03  .404159692016D-08  .282123632651D+01
    -.703707337379D-05  .597541546449D-02  .952742993832D-05  .515372196960D+04
     .295200000000D+06 -.115483999252D-06 -.172711448662D+00  .651925802231D-07
     .974803412063D+00  .202875000000D+03 -.165818580975D+00 -.768174854709D-08
    -.546451333320D-10  .100000000000D+01  .161500000000D+04  .000000000000D+00
     .340000000000D+01  .000000000000D+00 -.977888703346D-08  .105000000000D+03
     .288006000000D+06  .400000000000D+01
18 10 12 22 10  0  0.0  .111663248390D-03  .216004991671D-11  .000000000000D+00
     .730000000000D+02  .187187500000D+02  .471019619858D-08  .309907631749D+01
     .944361090660D-06  .118221029406D-01  .112541019917D-04  .515375490761D+04
     .295200000000D+06 -.186264514923D-08  .295636300907D+01 -.113621354103D-06
     .935126620440D+00  .146250000000D+03 -.228009834128D+01 -.778961018282D-08
    -.544665544649D-09  .100000000000D+01  .161500000000D+04  .000000000000D+00
     .240000000000D+01  .000000000000D+00 -.107102096081D-07  .730000000000D+02
     .288006000000D+06  .400000000000D+01
19 10 12 22 10  0  0.0 -.943439081311D-04 -.352429196937D-11  .000000000000D+00
     .490000000000D+02  .912500000000D+01  .471555356459D-08  .962164412821D+00
     .594183802605D-06  .683418393601D-02  .932812690735D-05  .515360031891D+04
     .295200000000D+06  .502914190292D-07  .924142648216D+00  .115483999252D-06
     .958165049340D+00  .194312500000D+03 -.163628440467D-01 -.796783189218D-08
     .573952478853D-09  .100000000000D+01  .161500000000D+04  .000000000000D+00
     .240000000000D+01  .000000000000D+00 -.149011611938D-07  .490000000000D+02
     .288006000000D+06  .400000000000D+01
20 10 12 22 10  0  0.0  .489954836667D-04 -.113686837722D-12  .000000000000D+00
     .104000000000D+03  .199375000000D+02  .482984403953D-08 -.280972149497D+01
     .110268592834D-05  .454594427720D-02  .108499079943D-04  .515376789093D+04
     .295200000000D+06  .745058059692D-07  .290245033194D+01 -.223517417908D-07
     .935134596269D+00  .156281250000D+03  .125965505383D+01 -.792175854447D-08
    -.634669293666D-09  .100000000000D+01  .161500000000D+04  .000000000000D+00
     .340000000000D+01  .000000000000D+00 -.791624188423D-08  .104000000000D+03
     .288006000000D+06  .400000000000D+01
21 10 12 22 10  0  0.0 -.111166387796D-03 -.272848410532D-11  .000000000000D+00
     .730000000000D+02 -.940625000000D+01  .557773233494D-08 -.194197093596D+01
    -.648200511932D-06  .170589754125D-01  .439211726189D-05  .515359141159D+04
     .295200000000D+06  .178813934326D-06  .190101398861D+01 -.145286321640D-06
     .931531373449D+00  .276062500000D+03 -.242492482463D+01 -.832248952224D-08
     .153577825704D-10  .100000000000D+01  .161500000000D+04  .000000000000D+00
     .240000000000D+01  .000000000000D+00 -.116415321827D-07  .730000000000D+02
     .288006000000D+06  .400000000000D+01
23 10 12 22 10  0  0.0  .336688943207D-03 -.216004991671D-11  .000000000000D+00
     .700000000000D+02  .160656250000D+03  .418553148704D-08  .506830509651D+00
     .837258994579D-05  .693551788572D-02  .659003853798D-05  .515361602783D+04
     .295200000000D+06  .184401869774D-06 -.228866745123D+01  .651925802231D-07
     .966166892318D+00  .254250000000D+03  .313314982127D+01 -.808247952486D-08
     .295012288446D-09  .100000000000D+01  .161500000000D+04  .000000000000D+00
     .240000000000D+01  .000000000000D+00 -.200234353542D-07  .700000000000D+02
     .288006000000D+06  .400000000000D+01
24 10 12 22 10  0  0.0  .349937938154D-03  .341060513165D-11  .000000000000D+00
     .300000000000D+02 -.125625000000D+02  .532200739726D-08 -.974983273453D-01
    -.782310962677D-06  .585238309577D-02  .511668622494D-05  .515471907425D+04
     .295200000000D+06  .968575477600D-07  .194319981933D+01 -.335276126862D-07
     .948159336288D+00  .275375000000D+03 -.280579767365D+00 -.838142054838D-08
    -.292512184307D-09  .100000000000D+01  .161500000000D+04  .000000000000D+00
     .240000000000D+01  .000000000000D+00 -.139698386192D-08  .300000000000D+02
     .288006000000D+06  .400000000000D+01
26 10 12 22 10  0  0.0 -.781007111073D-04 -.875388650456D-11  .000000000000D+00
     .590000000000D+02  .149562500000D+03  .377980030100D-08  .232192869754D+00
     .787526369095D-05  .199719114462D-01  .699236989021D-05  .515364758301D+04
     .295200000000D+06 -.238418579102D-06 -.222702290095D+01  .188127160072D-06
     .988929286131D+00  .262125000000D+03  .111820571687D+01 -.814212486647D-08
     .250010413937D-09  .100000000000D+01  .161500000000D+04  .000000000000D+00
     .240000000000D+01  .000000000000D+00 -.605359673500D-08  .590000000000D+02
     .288006000000D+06  .400000000000D+01
27 10 12 22 10  0  0.0  .219411216676D-03  .363797880709D-11  .000000000000D+00
     .600000000000D+02 -.121562500000D+02  .445661420730D-08  .133040492619D+01
    -.124983489513D-05  .218470008112D-01 -.361353158951D-06  .515374324799D+04
     .295200000000D+06  .189989805222D-06 -.130005885429D+01 -.463798642159D-06
     .979804600863D+00  .397031250000D+03 -.132952972375D+01 -.841213611352D-08
     .121433629627D-10  .100000000000D+01  .161500000000D+04  .000000000000D+00
     .240000000000D+01  .000000000000D+00 -.419095158577D-08  .600000000000D+02
     .288006000000D+06  .400000000000D+01
28 10 12 22 10  0  0.0  .106203369796D-04  .193267624127D-11  .000000000000D+00
     .700000000000D+02 -.174187500000D+03  .391480592452D-08  .237148997604D+01
    -.901892781258D-05  .166554764146D-01  .966340303421D-05  .515369801712D+04
     .295200000000D+06  .150874257088D-06 -.165271224324D+00 -.251457095146D-06
     .973076862980D+00  .198687500000D+03 -.192889875058D+01 -.752031325123D-08
    -.889322758148D-10  .100000000000D+01  .161500000000D+04  .000000000000D+00
     .240000000000D+01  .000000000000D+00 -.107102096081D-07  .700000000000D+02
     .288006000000D+06  .400000000000D+01
29 10 12 22 10  0  0.0  .172391068190D-03  .284217094304D-11  .000000000000D+00
     .790000000000D+02  .153125000000D+01  .446840041253D-08 -.180792178473D+01
     .372529029846D-07  .250776938628D-02  .968948006630D-05  .515360887337D+04
     .295200000000D+06 -.409781932831D-07  .878009611436D+00  .316649675369D-07
     .961047055010D+00  .191500000000D+03 -.125534583698D+01 -.781461122421D-08
     .574309636587D-09  .100000000000D+01  .161500000000D+04  .000000000000D+00
     .240000000000D+01  .000000000000D+00 -.838190317154D-08  .790000000000D+02
     .288006000000D+06  .400000000000D+01
30 10 12 22 10  0  0.0  .306975562125D-03  .329691829393D-11  .000000000000D+00
     .300000000000D+02 -.145062500000D+03  .433339478900D-08  .173849425572D+01
    -.768713653088D-05  .130228927592D-01  .808946788311D-05  .515536043358D+04
     .295200000000D+06  .106170773506D-06 -.247065875103D+00 -.292435288429D-06
     .959066335614D+00  .223375000000D+03  .155417205197D+01 -.786318467606D-08
    -.789318592573D-10  .100000000000D+01  .161500000000D+04  .000000000000D+00
     .240000000000D+01  .000000000000D+00 -.791624188423D-08  .300000000000D+02
     .288006000000D+06  .400000000000D+01
31 10 12 22 10  0  0.0  .213198363781D-04  .397903932026D-11  .000000000000D+00
     .400000000000D+02 -.281250000000D+02  .449983029314D-08 -.116012111255D+01
    -.147335231304D-05  .782127398998D-02  .180676579475D-06  .515355736542D+04
     .295200000000D+06 -.108033418655D-06 -.124431907148D+01 -.540167093277D-07
     .978408306999D+00  .389625000000D+03 -.103311582848D+01 -.844999483335D-08
     .414302971667D-10  .100000000000D+01  .161500000000D+04  .000000000000D+00
     .240000000000D+01  .000000000000D+00 -.130385160446D-07  .400000000000D+02
     .288006000000D+06  .400000000000D+01
